[{"OBJECT_NAME":"GPS BIIF-11","OBJECT_ID":"2015-062A","EPOCH":"2026-03-31T23:56:50.699328","MEAN_MOTION":2.00567089,"ECCENTRICITY":0.0111288,"INCLINATION":56.9112,"RA_OF_ASC_NODE":33.785,"ARG_OF_PERICENTER":231.5974,"MEAN_ANOMALY":127.3819,"EPHEMERIS_TYPE":0,"CLASSIFICATION_TYPE":"U","NORAD_CAT_ID":41019,"ELEMENT_SET_NO":999,"REV_AT_EPOCH":7628,"BSTAR":0,"MEAN_MOTION_DOT":-9.5e-7,"MEAN_MOTION_DDOT":0},{"OBJECT_NAME":"ELEKTRO-L 2","OBJECT_ID":"2015-074A","EPOCH":"2026-04-01T05:59:41.016192","MEAN_MOTION":1.00272092,"ECCENTRICITY":0.0002758,"INCLINATION":6.5023,"RA_OF_ASC_NODE":71.4572,"ARG_OF_PERICENTER":252.4022,"MEAN_ANOMALY":301.1839,"EPHEMERIS_TYPE":0,"CLASSIFICATION_TYPE":"U","NORAD_CAT_ID":41105,"ELEMENT_SET_NO":999,"REV_AT_EPOCH":3773,"BSTAR":0,"MEAN_MOTION_DOT":-1.22e-6,"MEAN_MOTION_DDOT":0},{"OBJECT_NAME":"GSAT0209 (GALILEO 12)","OBJECT_ID":"2015-079A","EPOCH":"2026-03-30T10:28:32.911392","MEAN_MOTION":1.70474349,"ECCENTRICITY":0.00054294,"INCLINATION":55.7773,"RA_OF_ASC_NODE":103.4201,"ARG_OF_PERICENTER":325.1139,"MEAN_ANOMALY":34.903,"EPHEMERIS_TYPE":0,"CLASSIFICATION_TYPE":"U","NORAD_CAT_ID":41174,"ELEMENT_SET_NO":999,"REV_AT_EPOCH":6343,"BSTAR":0,"MEAN_MOTION_DOT":4.3e-7,"MEAN_MOTION_DDOT":0},{"OBJECT_NAME":"GSAT0208 (GALILEO 11)","OBJECT_ID":"2015-079B","EPOCH":"2026-03-28T21:31:39.477216","MEAN_MOTION":1.70474176,"ECCENTRICITY":0.00048129,"INCLINATION":55.7739,"RA_OF_ASC_NODE":103.4591,"ARG_OF_PERICENTER":326.0397,"MEAN_ANOMALY":33.9829,"EPHEMERIS_TYPE":0,"CLASSIFICATION_TYPE":"U","NORAD_CAT_ID":41175,"ELEMENT_SET_NO":999,"REV_AT_EPOCH":6382,"BSTAR":0,"MEAN_MOTION_DOT":4.3e-7,"MEAN_MOTION_DDOT":0},{"OBJECT_NAME":"GPS BIIF-12","OBJECT_ID":"2016-007A","EPOCH":"2026-03-31T02:05:33.111456","MEAN_MOTION":2.00555465,"ECCENTRICITY":0.00959172,"INCLINATION":55.4741,"RA_OF_ASC_NODE":92.5542,"ARG_OF_PERICENTER":246.653,"MEAN_ANOMALY":112.3643,"EPHEMERIS_TYPE":0,"CLASSIFICATION_TYPE":"U","NORAD_CAT_ID":41328,"ELEMENT_SET_NO":999,"REV_AT_EPOCH":7427,"BSTAR":0,"MEAN_MOTION_DOT":3.4e-7,"MEAN_MOTION_DDOT":0},{"OBJECT_NAME":"GSAT0211 (GALILEO 14)","OBJECT_ID":"2016-030A","EPOCH":"2026-03-31T08:48:54.265536","MEAN_MOTION":1.70474005,"ECCENTRICITY":0.00029593,"INCLINATION":55.1209,"RA_OF_ASC_NODE":223.8331,"ARG_OF_PERICENTER":16.4503,"MEAN_ANOMALY":343.4963,"EPHEMERIS_TYPE":0,"CLASSIFICATION_TYPE":"U","NORAD_CAT_ID":41549,"ELEMENT_SET_NO":999,"REV_AT_EPOCH":6134,"BSTAR":0,"MEAN_MOTION_DOT":-2.8e-7,"MEAN_MOTION_DDOT":0},{"OBJECT_NAME":"GSAT0210 (GALILEO 13)","OBJECT_ID":"2016-030B","EPOCH":"2026-03-31T00:54:41.543712","MEAN_MOTION":1.70474024,"ECCENTRICITY":0.00019293,"INCLINATION":55.1204,"RA_OF_ASC_NODE":223.8403,"ARG_OF_PERICENTER":213.2791,"MEAN_ANOMALY":146.6457,"EPHEMERIS_TYPE":0,"CLASSIFICATION_TYPE":"U","NORAD_CAT_ID":41550,"ELEMENT_SET_NO":999,"REV_AT_EPOCH":6133,"BSTAR":0,"MEAN_MOTION_DOT":-2.9e-7,"MEAN_MOTION_DDOT":0},{"OBJECT_NAME":"INSAT-3DR","OBJECT_ID":"2016-054A","EPOCH":"2026-04-01T11:33:01.545696","MEAN_MOTION":1.00272861,"ECCENTRICITY":0.0012405,"INCLINATION":0.1213,"RA_OF_ASC_NODE":87.2148,"ARG_OF_PERICENTER":195.9951,"MEAN_ANOMALY":153.8725,"EPHEMERIS_TYPE":0,"CLASSIFICATION_TYPE":"U","NORAD_CAT_ID":41752,"ELEMENT_SET_NO":999,"REV_AT_EPOCH":3504,"BSTAR":0,"MEAN_MOTION_DOT":-8.6e-7,"MEAN_MOTION_DDOT":0},{"OBJECT_NAME":"GSAT0207 (GALILEO 15)","OBJECT_ID":"2016-069A","EPOCH":"2026-03-31T21:40:11.558784","MEAN_MOTION":1.70474231,"ECCENTRICITY":0.000576,"INCLINATION":55.4488,"RA_OF_ASC_NODE":103.2228,"ARG_OF_PERICENTER":312.9649,"MEAN_ANOMALY":47.0336,"EPHEMERIS_TYPE":0,"CLASSIFICATION_TYPE":"U","NORAD_CAT_ID":41859,"ELEMENT_SET_NO":999,"REV_AT_EPOCH":5808,"BSTAR":0,"MEAN_MOTION_DOT":3.8e-7,"MEAN_MOTION_DDOT":0},{"OBJECT_NAME":"GSAT0212 (GALILEO 16)","OBJECT_ID":"2016-069B","EPOCH":"2026-03-31T04:04:35.126400","MEAN_MOTION":1.70474452,"ECCENTRICITY":0.00043394,"INCLINATION":55.4456,"RA_OF_ASC_NODE":103.2382,"ARG_OF_PERICENTER":336.5122,"MEAN_ANOMALY":23.5181,"EPHEMERIS_TYPE":0,"CLASSIFICATION_TYPE":"U","NORAD_CAT_ID":41860,"ELEMENT_SET_NO":999,"REV_AT_EPOCH":5832,"BSTAR":0,"MEAN_MOTION_DOT":4.0e-7,"MEAN_MOTION_DDOT":0},{"OBJECT_NAME":"GSAT0213 (GALILEO 17)","OBJECT_ID":"2016-069C","EPOCH":"2026-03-29T04:34:53.766048","MEAN_MOTION":1.70475393,"ECCENTRICITY":0.00056724,"INCLINATION":55.4467,"RA_OF_ASC_NODE":103.3008,"ARG_OF_PERICENTER":296.7743,"MEAN_ANOMALY":63.2211,"EPHEMERIS_TYPE":0,"CLASSIFICATION_TYPE":"U","NORAD_CAT_ID":41861,"ELEMENT_SET_NO":999,"REV_AT_EPOCH":5815,"BSTAR":0,"MEAN_MOTION_DOT":4.2e-7,"MEAN_MOTION_DDOT":0},{"OBJECT_NAME":"GSAT0214 (GALILEO 18)","OBJECT_ID":"2016-069D","EPOCH":"2026-04-01T06:28:39.760896","MEAN_MOTION":1.70474552,"ECCENTRICITY":0.0004811,"INCLINATION":55.4469,"RA_OF_ASC_NODE":103.2083,"ARG_OF_PERICENTER":302.3517,"MEAN_ANOMALY":57.6467,"EPHEMERIS_TYPE":0,"CLASSIFICATION_TYPE":"U","NORAD_CAT_ID":41862,"ELEMENT_SET_NO":999,"REV_AT_EPOCH":5833,"BSTAR":0,"MEAN_MOTION_DOT":3.6e-7,"MEAN_MOTION_DDOT":0},{"OBJECT_NAME":"GOES 16","OBJECT_ID":"2016-071A","EPOCH":"2026-04-01T10:35:00.017952","MEAN_MOTION":1.00271983,"ECCENTRICITY":0.0002009,"INCLINATION":0.1674,"RA_OF_ASC_NODE":85.3506,"ARG_OF_PERICENTER":239.9451,"MEAN_ANOMALY":278.5505,"EPHEMERIS_TYPE":0,"CLASSIFICATION_TYPE":"U","NORAD_CAT_ID":41866,"ELEMENT_SET_NO":999,"REV_AT_EPOCH":3433,"BSTAR":0,"MEAN_MOTION_DOT":-1.0e-6,"MEAN_MOTION_DDOT":0},{"OBJECT_NAME":"GSAT-17","OBJECT_ID":"2017-040B","EPOCH":"2026-04-01T06:39:38.751840","MEAN_MOTION":1.00271193,"ECCENTRICITY":0.0004293,"INCLINATION":0.0602,"RA_OF_ASC_NODE":74.1145,"ARG_OF_PERICENTER":229.3442,"MEAN_ANOMALY":79.5592,"EPHEMERIS_TYPE":0,"CLASSIFICATION_TYPE":"U","NORAD_CAT_ID":42815,"ELEMENT_SET_NO":999,"REV_AT_EPOCH":3201,"BSTAR":0,"MEAN_MOTION_DOT":-2.68e-6,"MEAN_MOTION_DDOT":0},{"OBJECT_NAME":"GSAT0215 (GALILEO 19)","OBJECT_ID":"2017-079A","EPOCH":"2026-04-01T04:09:35.527968","MEAN_MOTION":1.70474678,"ECCENTRICITY":6.51e-5,"INCLINATION":55.099,"RA_OF_ASC_NODE":223.6238,"ARG_OF_PERICENTER":282.365,"MEAN_ANOMALY":77.5667,"EPHEMERIS_TYPE":0,"CLASSIFICATION_TYPE":"U","NORAD_CAT_ID":43055,"ELEMENT_SET_NO":999,"REV_AT_EPOCH":5167,"BSTAR":0,"MEAN_MOTION_DOT":-2.5e-7,"MEAN_MOTION_DDOT":0},{"OBJECT_NAME":"GSAT0216 (GALILEO 20)","OBJECT_ID":"2017-079B","EPOCH":"2026-03-30T02:50:13.045920","MEAN_MOTION":1.70474746,"ECCENTRICITY":0.00019903,"INCLINATION":55.0996,"RA_OF_ASC_NODE":223.6803,"ARG_OF_PERICENTER":299.0743,"MEAN_ANOMALY":60.8437,"EPHEMERIS_TYPE":0,"CLASSIFICATION_TYPE":"U","NORAD_CAT_ID":43056,"ELEMENT_SET_NO":999,"REV_AT_EPOCH":5165,"BSTAR":0,"MEAN_MOTION_DOT":-2.9e-7,"MEAN_MOTION_DDOT":0},{"OBJECT_NAME":"GSAT0217 (GALILEO 21)","OBJECT_ID":"2017-079C","EPOCH":"2026-03-31T12:17:28.222080","MEAN_MOTION":1.70474684,"ECCENTRICITY":0.00018525,"INCLINATION":55.0982,"RA_OF_ASC_NODE":223.6399,"ARG_OF_PERICENTER":332.6198,"MEAN_ANOMALY":27.3079,"EPHEMERIS_TYPE":0,"CLASSIFICATION_TYPE":"U","NORAD_CAT_ID":43057,"ELEMENT_SET_NO":999,"REV_AT_EPOCH":5166,"BSTAR":0,"MEAN_MOTION_DOT":-2.8e-7,"MEAN_MOTION_DDOT":0}]
