NAVSTAR 75 (USA 265)    
1 41019U 15062A   26090.99780902 -.00000095  00000+0  00000+0 0  9993
2 41019  56.9112  33.7850 0111288 231.5974 127.3819  2.00567089 76280
ELEKTRO-L 2             
1 41105U 15074A   26091.24978028 -.00000122  00000+0  00000+0 0  9990
2 41105   6.5023  71.4572 0002758 252.4022 301.1839  1.00272092 37732
GSAT0209 (GALILEO 12)   
1 41174U 15079A   26089.43649203  .00000043  00000+0  00000+0 0  9990
2 41174  55.7773 103.4201 0005429 325.1139  34.9030  1.70474349 63432
GSAT0208 (GALILEO 11)   
1 41175U 15079B   26087.89698469  .00000043  00000+0  00000+0 0  9997
2 41175  55.7739 103.4591 0004812 326.0397  33.9829  1.70474176 63824
NAVSTAR 76 (USA 266)    
1 41328U 16007A   26090.08718879  .00000034  00000+0  00000+0 0  9992
2 41328  55.4741  92.5542 0095917 246.6530 112.3643  2.00555465 74272
GSAT0211 (GALILEO 14)   
1 41549U 16030A   26090.36729474 -.00000028  00000+0  00000+0 0  9991
2 41549  55.1209 223.8331 0002959  16.4503 343.4963  1.70474005 61347
GSAT0210 (GALILEO 13)   
1 41550U 16030B   26090.03798083 -.00000029  00000+0  00000+0 0  9990
2 41550  55.1204 223.8403 0001929 213.2791 146.6457  1.70474024 61337
INSAT-3DR               
1 41752U 16054A   26091.48126789 -.00000086  00000+0  00000+0 0  9991
2 41752   0.1213  87.2148 0012405 195.9951 153.8725  1.00272861 35049
GSAT0207 (GALILEO 15)   
1 41859U 16069A   26090.90291156  .00000038  00000+0  00000+0 0  9998
2 41859  55.4488 103.2228 0005760 312.9649  47.0336  1.70474231 58086
GSAT0212 (GALILEO 16)   
1 41860U 16069B   26090.16985100  .00000040  00000+0  00000+0 0  9990
2 41860  55.4456 103.2382 0004339 336.5122  23.5181  1.70474452 58322
GSAT0213 (GALILEO 17)   
1 41861U 16069C   26088.19090007  .00000042  00000+0  00000+0 0  9996
2 41861  55.4467 103.3008 0005672 296.7743  63.2211  1.70475393 58159
GSAT0214 (GALILEO 18)   
1 41862U 16069D   26091.26990464  .00000036  00000+0  00000+0 0  9998
2 41862  55.4469 103.2083 0004811 302.3517  57.6467  1.70474552 58337
GOES 16                 
1 41866U 16071A   26091.44097243 -.00000100  00000+0  00000+0 0  9991
2 41866   0.1674  85.3506 0002009 239.9451 278.5505  1.00271983 34332
GSAT-17                 
1 42815U 17040B   26091.27753185 -.00000268  00000+0  00000+0 0  9993
2 42815   0.0602  74.1145 0004293 229.3442  79.5592  1.00271193 32013
GSAT0215 (GALILEO 19)   
1 43055U 17079A   26091.17332787 -.00000025  00000+0  00000+0 0  9993
2 43055  55.0990 223.6238 0000651 282.3650  77.5667  1.70474678 51672
GSAT0216 (GALILEO 20)   
1 43056U 17079B   26089.11820655 -.00000029  00000+0  00000+0 0  9995
2 43056  55.0996 223.6803 0001990 299.0743  60.8437  1.70474746 51656
GSAT0217 (GALILEO 21)   
1 43057U 17079C   26090.51213220 -.00000028  00000+0  00000+0 0  9995
2 43057  55.0982 223.6399 0001852 332.6198  27.3079  1.70474684 51669
